[{"OBJECT_NAME":"STARLINK-32402","OBJECT_ID":"2024-196B","EPOCH":"2026-03-09T11:20:43.157472","MEAN_MOTION":15.30191635,"ECCENTRICITY":0.00011524,"INCLINATION":53.1607,"RA_OF_ASC_NODE":102.3284,"ARG_OF_PERICENTER":101.0141,"MEAN_ANOMALY":259.0989,"EPHEMERIS_TYPE":0,"CLASSIFICATION_TYPE":"U","NORAD_CAT_ID":61708,"ELEMENT_SET_NO":999,"REV_AT_EPOCH":7712,"BSTAR":3.1096974e-5,"MEAN_MOTION_DOT":5.62e-6,"MEAN_MOTION_DDOT":0},{"OBJECT_NAME":"OBJECT N","OBJECT_ID":"2024-205N","EPOCH":"2026-03-09T22:36:13.267872","MEAN_MOTION":15.33862123,"ECCENTRICITY":0.00094432,"INCLINATION":97.4211,"RA_OF_ASC_NODE":148.9295,"ARG_OF_PERICENTER":39.7652,"MEAN_ANOMALY":320.4281,"EPHEMERIS_TYPE":0,"CLASSIFICATION_TYPE":"U","NORAD_CAT_ID":61906,"ELEMENT_SET_NO":999,"REV_AT_EPOCH":7364,"BSTAR":0.00078005624,"MEAN_MOTION_DOT":0.00025559,"MEAN_MOTION_DDOT":0}]
